ONEWEB-0634             
1 56075U 23043AF  25251.58466613 -.00000159  00000+0 -45594-3 0  9995
2 56075  87.9049 315.4194 0001867 107.5841 252.5494 13.15548966119377
ONEWEB-0635             
1 56076U 23043AG  25251.57992011 -.00000115  00000+0 -33998-3 0  9998
2 56076  87.9032 315.3843 0002040  89.5377 270.5987 13.15548579119408
ONEWEB-0636             
1 56077U 23043AH  25251.41988029  .00000021  00000+0  22854-4 0  9990
2 56077  87.9039 315.4323 0002019  91.5490 268.5872 13.15549033119366
ONEWEB-0637             
1 56078U 23043AJ  25251.56567036  .00000052  00000+0  10512-3 0  9999
2 56078  87.9042 315.4160 0002234  98.4742 261.6641 13.15548100119402
ONEWEB-0647             
1 56079U 23043AK  25251.56089884  .00000116  00000+0  27286-3 0  9997
2 56079  87.9045 315.4298 0001801  91.8914 268.2423 13.15548833119397
ONEWEB-0651             
1 56080U 23043AL  25251.55615268 -.00000219  00000+0 -61504-3 0  9996
2 56080  87.9053 315.4217 0002169  93.3965 266.7413 13.15549389120593
ONEWEB-0718             
1 56081U 23043AM  25251.55140255  .00000168  00000+0  41087-3 0  9991
2 56081  87.9046 315.4043 0002021 114.5464 245.5877 13.15549308119408
ONEWEB-0561             
1 56710U 23068A   25251.60977398 -.00000011  00000+0 -59511-4 0  9990
2 56710  87.9280 330.5883 0001987  84.2775 275.8585 13.20769782112338
